{
  "type": "FeatureCollection",
  "features": [
    {
      "type": "Feature",
      "properties": {
        "norad_id": 66608,
        "name": "STARLINK-36036",
        "group": "last-30-days",
        "lat": -22.063918200631285,
        "lon": 178.26064504117596,
        "alt_km": 416.90414983168466,
        "timestamp": "2025-12-10T18:56:58.833716+00:00",
        "meta_object_name": "STARLINK-36036",
        "meta_object_id": "2025-270W",
        "meta_epoch": "2025-12-10T12:00:02.998944",
        "meta_mean_motion": 15.51057279,
        "meta_eccentricity": 0.0001777,
        "meta_inclination": 42.9997,
        "meta_ra_of_asc_node": 205.7388,
        "meta_arg_of_pericenter": 246.8612,
        "meta_mean_anomaly": 261.3573,
        "meta_ephemeris_type": 0,
        "meta_classification_type": "U",
        "meta_norad_cat_id": 66608,
        "meta_element_set_no": 999,
        "meta_rev_at_epoch": 388,
        "meta_bstar": -0.013872,
        "meta_mean_motion_dot": -0.00763084,
        "meta_mean_motion_ddot": 0,
        "tle_line1": "1 66608U 25270W   25344.50003471 -.00763084  00000+0 -13872-1 0  9991",
        "tle_line2": "2 66608  42.9997 205.7388 0001777 246.8612 261.3573 15.51057279  3880"
      },
      "geometry": {
        "type": "Point",
        "coordinates": [
          178.26064504117596,
          -22.063918200631285
        ]
      }
    },
    {
      "type": "Feature",
      "properties": {
        "norad_id": 66609,
        "name": "STARLINK-36034",
        "group": "last-30-days",
        "lat": -20.874082324233832,
        "lon": 179.88354541838518,
        "alt_km": 416.5421432378889,
        "timestamp": "2025-12-10T18:56:58.833728+00:00",
        "meta_object_name": "STARLINK-36034",
        "meta_object_id": "2025-270X",
        "meta_epoch": "2025-12-10T12:00:02.998944",
        "meta_mean_motion": 15.51050183,
        "meta_eccentricity": 0.0002062,
        "meta_inclination": 42.9998,
        "meta_ra_of_asc_node": 205.7351,
        "meta_arg_of_pericenter": 254.6408,
        "meta_mean_anomaly": 255.4928,
        "meta_ephemeris_type": 0,
        "meta_classification_type": "U",
        "meta_norad_cat_id": 66609,
        "meta_element_set_no": 999,
        "meta_rev_at_epoch": 388,
        "meta_bstar": -0.012936,
        "meta_mean_motion_dot": -0.00715186,
        "meta_mean_motion_ddot": 0,
        "tle_line1": "1 66609U 25270X   25344.50003471 -.00715186  00000+0 -12936-1 0  9992",
        "tle_line2": "2 66609  42.9998 205.7351 0002062 254.6408 255.4928 15.51050183  3885"
      },
      "geometry": {
        "type": "Point",
        "coordinates": [
          179.88354541838518,
          -20.874082324233832
        ]
      }
    },
    {
      "type": "Feature",
      "properties": {
        "norad_id": 66610,
        "name": "STARLINK-35680",
        "group": "last-30-days",
        "lat": -19.676319225084924,
        "lon": -178.5302215291879,
        "alt_km": 416.40023238111644,
        "timestamp": "2025-12-10T18:56:58.833740+00:00",
        "meta_object_name": "STARLINK-35680",
        "meta_object_id": "2025-270Y",
        "meta_epoch": "2025-12-10T12:00:02.998944",
        "meta_mean_motion": 15.5105147,
        "meta_eccentricity": 0.0002047,
        "meta_inclination": 43,
        "meta_ra_of_asc_node": 205.7298,
        "meta_arg_of_pericenter": 258.0419,
        "meta_mean_anomaly": 254.0059,
        "meta_ephemeris_type": 0,
        "meta_classification_type": "U",
        "meta_norad_cat_id": 66610,
        "meta_element_set_no": 999,
        "meta_rev_at_epoch": 414,
        "meta_bstar": -0.012925,
        "meta_mean_motion_dot": -0.00714653,
        "meta_mean_motion_ddot": 0,
        "tle_line1": "1 66610U 25270Y   25344.50003471 -.00714653  00000+0 -12925-1 0  9990",
        "tle_line2": "2 66610  43.0000 205.7298 0002047 258.0419 254.0059 15.51051470  4146"
      },
      "geometry": {
        "type": "Point",
        "coordinates": [
          -178.5302215291879,
          -19.676319225084924
        ]
      }
    },
    {
      "type": "Feature",
      "properties": {
        "norad_id": 66611,
        "name": "STARLINK-35583",
        "group": "last-30-days",
        "lat": -18.462326229371723,
        "lon": -176.9646488599326,
        "alt_km": 416.4001079361542,
        "timestamp": "2025-12-10T18:56:58.833750+00:00",
        "meta_object_name": "STARLINK-35583",
        "meta_object_id": "2025-270Z",
        "meta_epoch": "2025-12-10T12:00:02.998944",
        "meta_mean_motion": 15.51044618,
        "meta_eccentricity": 0.0002073,
        "meta_inclination": 42.9997,
        "meta_ra_of_asc_node": 205.7249,
        "meta_arg_of_pericenter": 255.6086,
        "meta_mean_anomaly": 258.3617,
        "meta_ephemeris_type": 0,
        "meta_classification_type": "U",
        "meta_norad_cat_id": 66611,
        "meta_element_set_no": 999,
        "meta_rev_at_epoch": 414,
        "meta_bstar": -0.012784,
        "meta_mean_motion_dot": -0.00698482,
        "meta_mean_motion_ddot": 0,
        "tle_line1": "1 66611U 25270Z   25344.50003471 -.00698482  00000+0 -12784-1 0  9995",
        "tle_line2": "2 66611  42.9997 205.7249 0002073 255.6086 258.3617 15.51044618  4141"
      },
      "geometry": {
        "type": "Point",
        "coordinates": [
          -176.9646488599326,
          -18.462326229371723
        ]
      }
    },
    {
      "type": "Feature",
      "properties": {
        "norad_id": 66612,
        "name": "STARLINK-36039",
        "group": "last-30-days",
        "lat": -17.23492954475335,
        "lon": -175.4209367473442,
        "alt_km": 416.3293932137758,
        "timestamp": "2025-12-10T18:56:58.833760+00:00",
        "meta_object_name": "STARLINK-36039",
        "meta_object_id": "2025-270AA",
        "meta_epoch": "2025-12-10T12:00:02.998944",
        "meta_mean_motion": 15.51057021,
        "meta_eccentricity": 0.0002082,
        "meta_inclination": 42.9998,
        "meta_ra_of_asc_node": 205.7192,
        "meta_arg_of_pericenter": 256.0286,
        "meta_mean_anomaly": 259.8559,
        "meta_ephemeris_type": 0,
        "meta_classification_type": "U",
        "meta_norad_cat_id": 66612,
        "meta_element_set_no": 999,
        "meta_rev_at_epoch": 404,
        "meta_bstar": -0.013203,
        "meta_mean_motion_dot": -0.00729026,
        "meta_mean_motion_ddot": 0,
        "tle_line1": "1 66612U 25270AA  25344.50003471 -.00729026  00000+0 -13203-1 0  9992",
        "tle_line2": "2 66612  42.9998 205.7192 0002082 256.0286 259.8559 15.51057021  4049"
      },
      "geometry": {
        "type": "Point",
        "coordinates": [
          -175.4209367473442,
          -17.23492954475335
        ]
      }
    },
    {
      "type": "Feature",
      "properties": {
        "norad_id": 66613,
        "name": "STARLINK-36037",
        "group": "last-30-days",
        "lat": -15.995098660091775,
        "lon": -173.89640148205146,
        "alt_km": 416.2374988126048,
        "timestamp": "2025-12-10T18:56:58.833770+00:00",
        "meta_object_name": "STARLINK-36037",
        "meta_object_id": "2025-270AB",
        "meta_epoch": "2025-12-10T12:00:02.998944",
        "meta_mean_motion": 15.51069495,
        "meta_eccentricity": 0.0002077,
        "meta_inclination": 42.9996,
        "meta_ra_of_asc_node": 205.7142,
        "meta_arg_of_pericenter": 256.6873,
        "meta_mean_anomaly": 261.1101,
        "meta_ephemeris_type": 0,
        "meta_classification_type": "U",
        "meta_norad_cat_id": 66613,
        "meta_element_set_no": 999,
        "meta_rev_at_epoch": 404,
        "meta_bstar": -0.013493,
        "meta_mean_motion_dot": -0.00744127,
        "meta_mean_motion_ddot": 0,
        "tle_line1": "1 66613U 25270AB  25344.50003471 -.00744127  00000+0 -13493-1 0  9993",
        "tle_line2": "2 66613  42.9996 205.7142 0002077 256.6873 261.1101 15.51069495  4042"
      },
      "geometry": {
        "type": "Point",
        "coordinates": [
          -173.89640148205146,
          -15.995098660091775
        ]
      }
    },
    {
      "type": "Feature",
      "properties": {
        "norad_id": 66614,
        "name": "STARLINK-36040",
        "group": "last-30-days",
        "lat": -13.494249440750407,
        "lon": -170.91277874895565,
        "alt_km": 416.0729504853698,
        "timestamp": "2025-12-10T18:56:58.833782+00:00",
        "meta_object_name": "STARLINK-36040",
        "meta_object_id": "2025-270AC",
        "meta_epoch": "2025-12-10T12:00:02.998944",
        "meta_mean_motion": 15.51053992,
        "meta_eccentricity": 0.0001908,
        "meta_inclination": 42.9996,
        "meta_ra_of_asc_node": 205.7052,
        "meta_arg_of_pericenter": 258.2626,
        "meta_mean_anomaly": 263.3722,
        "meta_ephemeris_type": 0,
        "meta_classification_type": "U",
        "meta_norad_cat_id": 66614,
        "meta_element_set_no": 999,
        "meta_rev_at_epoch": 388,
        "meta_bstar": -0.013102,
        "meta_mean_motion_dot": -0.00723763,
        "meta_mean_motion_ddot": 0,
        "tle_line1": "1 66614U 25270AC  25344.50003471 -.00723763  00000+0 -13102-1 0  9994",
        "tle_line2": "2 66614  42.9996 205.7052 0001908 258.2626 263.3722 15.51053992  3888"
      },
      "geometry": {
        "type": "Point",
        "coordinates": [
          -170.91277874895565,
          -13.494249440750407
        ]
      }
    }
  ]
}